IRIDIUM 116             
1 43072U 17083C   24305.13604286  .00001327  00000+0  46663-3 0  9999
2 43072  86.4024 210.2448 0002143  79.1303 281.0133 14.34226112359029
IRIDIUM 130             
1 43073U 17083D   24305.80201457  .00001197  00000+0  42024-3 0  9999
2 43073  86.4031 210.1846 0002421  81.7010 278.4460 14.34214585359060
IRIDIUM 151             
1 43074U 17083E   24305.77665146  .00001349  00000+0  47469-3 0  9992
2 43074  86.4026 210.0221 0001945  79.4475 280.6940 14.34218389359086
IRIDIUM 134             
1 43075U 17083F   24305.11700883  .00001024  00000+0  35862-3 0  9993
2 43075  86.4034 210.2975 0002264  81.2384 278.9068 14.34210075358959
IRIDIUM 137             
1 43076U 17083G   24305.19946471  .00000724  00000+0  25138-3 0  9998
2 43076  86.4029 210.3434 0001924  64.9832 295.1563 14.34219142359038
IRIDIUM 141             
1 43077U 17083H   24305.61173435  .00000789  00000+0  27471-3 0  9991
2 43077  86.4024 210.0359 0002058  86.4625 273.6806 14.34225976359094
IRIDIUM 153             
1 43078U 17083J   24305.56392439  .00001297  00000+0  45610-3 0  9993
2 43078  86.4027 178.5874 0001937 101.7289 258.4124 14.34219508360191
IRIDIUM 131             
1 43079U 17083K   24305.80836789  .00000332  00000+0  11154-3 0  9997
2 43079  86.4029 210.1001 0001887  85.6923 274.4489 14.34214610359052
